QIANFAN-57              
1 62787U 25016C   25362.08244793  .00000184  00000+0  26679-3 0  9994
2 62787  88.9788 101.6181 0002560 109.9759 250.1668 13.50981467 49275
QIANFAN-58              
1 62788U 25016D   25362.12766999  .00000200  00000+0  29113-3 0  9992
2 62788  88.9758 101.4404 0012126 300.1032  59.8917 13.50983344 49320
QIANFAN-59              
1 62789U 25016E   25362.15231650  .00000049  00000+0  57473-4 0  9999
2 62789  88.9781 101.5152 0012511 304.3659  55.6308 13.50979507 49321
QIANFAN-60              
1 62790U 25016F   25362.11126022  .00000189  00000+0  27501-3 0  9996
2 62790  88.9762 101.4880 0014027 300.2552  59.7210 13.50988755 49300
QIANFAN-61              
1 62791U 25016G   25362.07002432  .00000183  00000+0  26552-3 0  9999
2 62791  88.9830 101.6655 0012972 299.8984  60.0878 13.50985136 49314
QIANFAN-62              
1 62792U 25016H   25362.14823946  .00000187  00000+0  27174-3 0  9994
2 62792  88.9776 101.5176 0014352 299.8893  60.0831 13.50981788 49312
QIANFAN-63              
1 62793U 25016J   25362.17287912  .00000185  00000+0  26844-3 0  9996
2 62793  88.9783 101.4675 0014434 305.8401  54.1409 13.50980447 49358
QIANFAN-64              
1 62794U 25016K   25362.13997716  .00000184  00000+0  26626-3 0  9990
2 62794  88.9770 101.4430 0012337 298.1773  61.8132 13.50983505 49345
